QIANFAN-33              
1 61566U 24185Q   25365.60478346  .00000655  00000+0  46386-3 0  9998
2 61566  88.9791  76.7088 0005100 262.0148  98.0450 13.96569397 71791
QIANFAN-34              
1 61567U 24185R   25365.63554047  .00000758  00000+0  48573-3 0  9999
2 61567  88.9768  76.2439 0003340 269.1791  90.9007 14.02325468 72008
QIANFAN-35              
1 61568U 24185S   25365.61731035  .00001397  00000+0  55778-3 0  9997
2 61568  88.9792  74.6676 0005548 204.9382 155.1546 14.28005190 72878
QIANFAN-36              
1 61569U 24185T   25365.63766325  .00000188  00000+0  25254-3 0  9993
2 61569  88.9777  79.0802 0005468   7.1940 352.9291 13.55595041 70483
QIANFAN-37              
1 62238U 24232B   25365.58265877  .00000114  00000+0  15796-3 0  9999
2 62238  89.0002  39.4268 0002453  84.5953 275.5478 13.50981246101719
QIANFAN-38              
1 62239U 24232C   25365.60734474  .00000117  00000+0  16227-3 0  9990
2 62239  89.0009  39.3413 0016063 136.0077 224.2356 13.50978972101774
QIANFAN-39              
1 62240U 24232D   25365.58836775  .00000519  00000+0  21378-3 0  9995
2 62240  89.0001  35.1526 0016834  24.9076 335.2926 14.25405653104073
QIANFAN-40              
1 62241U 24232E   25365.64026236  .00000119  00000+0  16487-3 0  9997
2 62241  89.0037  38.9278 0014911 142.7982 217.4205 13.50979037102143
